[{"OBJECT_NAME":"ONEWEB-0461","OBJECT_ID":"2022-012AD","EPOCH":"2026-06-17T03:40:32.462400","MEAN_MOTION":13.17648819,"ECCENTRICITY":0.0001949,"INCLINATION":87.9141,"RA_OF_ASC_NODE":5.8638,"ARG_OF_PERICENTER":90.1247,"MEAN_ANOMALY":270.0108,"EPHEMERIS_TYPE":0,"CLASSIFICATION_TYPE":"U","NORAD_CAT_ID":51649,"ELEMENT_SET_NO":999,"REV_AT_EPOCH":21388,"BSTAR":7.6803e-05,"MEAN_MOTION_DOT":4.3e-07,"MEAN_MOTION_DDOT":0.0},{"OBJECT_NAME":"ONEWEB-0463","OBJECT_ID":"2022-012AE","EPOCH":"2026-06-17T01:24:28.578240","MEAN_MOTION":13.1764892,"ECCENTRICITY":0.0001969,"INCLINATION":87.913,"RA_OF_ASC_NODE":5.9052,"ARG_OF_PERICENTER":91.2437,"MEAN_ANOMALY":268.892,"EPHEMERIS_TYPE":0,"CLASSIFICATION_TYPE":"U","NORAD_CAT_ID":51650,"ELEMENT_SET_NO":999,"REV_AT_EPOCH":21365,"BSTAR":7.6588e-05,"MEAN_MOTION_DOT":4.3e-07,"MEAN_MOTION_DDOT":0.0},{"OBJECT_NAME":"ONEWEB-0464","OBJECT_ID":"2022-012AF","EPOCH":"2026-06-17T00:47:30.844896","MEAN_MOTION":13.1030871,"ECCENTRICITY":0.0001218,"INCLINATION":87.8841,"RA_OF_ASC_NODE":36.3124,"ARG_OF_PERICENTER":88.834,"MEAN_ANOMALY":271.2927,"EPHEMERIS_TYPE":0,"CLASSIFICATION_TYPE":"U","NORAD_CAT_ID":51651,"ELEMENT_SET_NO":999,"REV_AT_EPOCH":20930,"BSTAR":-0.020836,"MEAN_MOTION_DOT":-7.248e-05,"MEAN_MOTION_DDOT":0.0},{"OBJECT_NAME":"ONEWEB-0468","OBJECT_ID":"2022-012AG","EPOCH":"2026-06-17T00:56:50.303040","MEAN_MOTION":13.10421179,"ECCENTRICITY":0.0001612,"INCLINATION":87.8827,"RA_OF_ASC_NODE":36.3041,"ARG_OF_PERICENTER":77.5114,"MEAN_ANOMALY":282.6194,"EPHEMERIS_TYPE":0,"CLASSIFICATION_TYPE":"U","NORAD_CAT_ID":51652,"ELEMENT_SET_NO":999,"REV_AT_EPOCH":20928,"BSTAR":0.014127,"MEAN_MOTION_DOT":4.95e-05,"MEAN_MOTION_DDOT":0.0},{"OBJECT_NAME":"ONEWEB-0473","OBJECT_ID":"2022-012AH","EPOCH":"2026-06-17T02:25:28.882272","MEAN_MOTION":13.10331765,"ECCENTRICITY":0.0001273,"INCLINATION":87.8774,"RA_OF_ASC_NODE":36.2928,"ARG_OF_PERICENTER":80.6156,"MEAN_ANOMALY":279.5115,"EPHEMERIS_TYPE":0,"CLASSIFICATION_TYPE":"U","NORAD_CAT_ID":51653,"ELEMENT_SET_NO":999,"REV_AT_EPOCH":20929,"BSTAR":-0.01158,"MEAN_MOTION_DOT":-4.026e-05,"MEAN_MOTION_DDOT":0.0},{"OBJECT_NAME":"ONEWEB-0474","OBJECT_ID":"2022-012AJ","EPOCH":"2026-06-17T02:13:30.583776","MEAN_MOTION":13.10344846,"ECCENTRICITY":0.0001021,"INCLINATION":87.8818,"RA_OF_ASC_NODE":36.2788,"ARG_OF_PERICENTER":71.2518,"MEAN_ANOMALY":288.872,"EPHEMERIS_TYPE":0,"CLASSIFICATION_TYPE":"U","NORAD_CAT_ID":51654,"ELEMENT_SET_NO":999,"REV_AT_EPOCH":20928,"BSTAR":-0.006541400000000001,"MEAN_MOTION_DOT":-2.269e-05,"MEAN_MOTION_DDOT":0.0},{"OBJECT_NAME":"ONEWEB-0475","OBJECT_ID":"2022-012AK","EPOCH":"2026-06-17T01:41:29.010624","MEAN_MOTION":13.17648724,"ECCENTRICITY":0.0001487,"INCLINATION":87.9133,"RA_OF_ASC_NODE":5.8958,"ARG_OF_PERICENTER":69.3797,"MEAN_ANOMALY":290.7494,"EPHEMERIS_TYPE":0,"CLASSIFICATION_TYPE":"U","NORAD_CAT_ID":51655,"ELEMENT_SET_NO":999,"REV_AT_EPOCH":21367,"BSTAR":0.00011282000000000001,"MEAN_MOTION_DOT":5.7e-07,"MEAN_MOTION_DDOT":0.0},{"OBJECT_NAME":"ONEWEB-0490","OBJECT_ID":"2022-138A","EPOCH":"2026-06-17T03:13:48.156960","MEAN_MOTION":13.19724614,"ECCENTRICITY":0.0001698,"INCLINATION":87.9176,"RA_OF_ASC_NODE":304.9772,"ARG_OF_PERICENTER":101.865,"MEAN_ANOMALY":258.2673,"EPHEMERIS_TYPE":0,"CLASSIFICATION_TYPE":"U","NORAD_CAT_ID":54113,"ELEMENT_SET_NO":999,"REV_AT_EPOCH":17682,"BSTAR":-4.1698000000000006e-05,"MEAN_MOTION_DOT":-4e-08,"MEAN_MOTION_DDOT":0.0},{"OBJECT_NAME":"ONEWEB-0492","OBJECT_ID":"2022-138B","EPOCH":"2026-06-16T22:22:40.440864","MEAN_MOTION":13.19726006,"ECCENTRICITY":0.0001844,"INCLINATION":87.9168,"RA_OF_ASC_NODE":305.0188,"ARG_OF_PERICENTER":106.9855,"MEAN_ANOMALY":253.1479,"EPHEMERIS_TYPE":0,"CLASSIFICATION_TYPE":"U","NORAD_CAT_ID":54114,"ELEMENT_SET_NO":999,"REV_AT_EPOCH":17680,"BSTAR":-0.00011703,"MEAN_MOTION_DOT":-3.4e-07,"MEAN_MOTION_DDOT":0.0},{"OBJECT_NAME":"ONEWEB-0495","OBJECT_ID":"2022-138C","EPOCH":"2026-06-16T21:50:49.349760","MEAN_MOTION":13.19724827,"ECCENTRICITY":0.0001264,"INCLINATION":87.9168,"RA_OF_ASC_NODE":305.0258,"ARG_OF_PERICENTER":109.371,"MEAN_ANOMALY":250.7559,"EPHEMERIS_TYPE":0,"CLASSIFICATION_TYPE":"U","NORAD_CAT_ID":54115,"ELEMENT_SET_NO":999,"REV_AT_EPOCH":17678,"BSTAR":-0.00018427,"MEAN_MOTION_DOT":-6.1e-07,"MEAN_MOTION_DDOT":0.0},{"OBJECT_NAME":"ONEWEB-0497","OBJECT_ID":"2022-138D","EPOCH":"2026-06-17T01:47:22.308000","MEAN_MOTION":13.19724955,"ECCENTRICITY":0.0001794,"INCLINATION":87.9176,"RA_OF_ASC_NODE":304.9848,"ARG_OF_PERICENTER":99.6708,"MEAN_ANOMALY":260.4627,"EPHEMERIS_TYPE":0,"CLASSIFICATION_TYPE":"U","NORAD_CAT_ID":54116,"ELEMENT_SET_NO":999,"REV_AT_EPOCH":17679,"BSTAR":8.2692e-05,"MEAN_MOTION_DOT":4.6e-07,"MEAN_MOTION_DDOT":0.0},{"OBJECT_NAME":"ONEWEB-0499","OBJECT_ID":"2022-138E","EPOCH":"2026-06-17T03:12:39.811968","MEAN_MOTION":13.19726439,"ECCENTRICITY":0.0001597,"INCLINATION":87.9169,"RA_OF_ASC_NODE":304.9825,"ARG_OF_PERICENTER":97.9054,"MEAN_ANOMALY":262.226,"EPHEMERIS_TYPE":0,"CLASSIFICATION_TYPE":"U","NORAD_CAT_ID":54117,"ELEMENT_SET_NO":999,"REV_AT_EPOCH":17681,"BSTAR":-9.9517e-05,"MEAN_MOTION_DOT":-2.7e-07,"MEAN_MOTION_DDOT":0.0},{"OBJECT_NAME":"ONEWEB-0500","OBJECT_ID":"2022-138F","EPOCH":"2026-06-17T03:16:04.351872","MEAN_MOTION":13.19724516,"ECCENTRICITY":0.0001927,"INCLINATION":87.9178,"RA_OF_ASC_NODE":304.9763,"ARG_OF_PERICENTER":100.7916,"MEAN_ANOMALY":259.3434,"EPHEMERIS_TYPE":0,"CLASSIFICATION_TYPE":"U","NORAD_CAT_ID":54118,"ELEMENT_SET_NO":999,"REV_AT_EPOCH":17682,"BSTAR":7.9949e-05,"MEAN_MOTION_DOT":4.5e-07,"MEAN_MOTION_DDOT":0.0},{"OBJECT_NAME":"ONEWEB-0501","OBJECT_ID":"2022-138G","EPOCH":"2026-06-16T22:31:45.579072","MEAN_MOTION":13.19723352,"ECCENTRICITY":0.0001448,"INCLINATION":87.9177,"RA_OF_ASC_NODE":305.0151,"ARG_OF_PERICENTER":103.2029,"MEAN_ANOMALY":256.9266,"EPHEMERIS_TYPE":0,"CLASSIFICATION_TYPE":"U","NORAD_CAT_ID":54119,"ELEMENT_SET_NO":999,"REV_AT_EPOCH":17677,"BSTAR":4.229e-05,"MEAN_MOTION_DOT":3e-07,"MEAN_MOTION_DDOT":0.0},{"OBJECT_NAME":"ONEWEB-0502","OBJECT_ID":"2022-138H","EPOCH":"2026-06-17T01:49:38.070912","MEAN_MOTION":13.19724664,"ECCENTRICITY":0.0001617,"INCLINATION":87.9177,"RA_OF_ASC_NODE":304.9764,"ARG_OF_PERICENTER":95.2927,"MEAN_ANOMALY":264.839,"EPHEMERIS_TYPE":0,"CLASSIFICATION_TYPE":"U","NORAD_CAT_ID":54120,"ELEMENT_SET_NO":999,"REV_AT_EPOCH":17681,"BSTAR":5.7668e-05,"MEAN_MOTION_DOT":3.6e-07,"MEAN_MOTION_DDOT":0.0},{"OBJECT_NAME":"ONEWEB-0503","OBJECT_ID":"2022-138J","EPOCH":"2026-06-17T03:22:54.043392","MEAN_MOTION":13.19724332,"ECCENTRICITY":0.0001908,"INCLINATION":87.918,"RA_OF_ASC_NODE":304.9696,"ARG_OF_PERICENTER":90.7881,"MEAN_ANOMALY":269.3471,"EPHEMERIS_TYPE":0,"CLASSIFICATION_TYPE":"U","NORAD_CAT_ID":54121,"ELEMENT_SET_NO":999,"REV_AT_EPOCH":17681,"BSTAR":-0.00015882,"MEAN_MOTION_DOT":-5.1e-07,"MEAN_MOTION_DDOT":0.0}]