ONEWEB-0461             
1 51649U 22012AD  26168.15315350  .00000043  00000+0  76803-4 0  9992
2 51649  87.9141   5.8638 0001949  90.1247 270.0108 13.17648819213881
ONEWEB-0463             
1 51650U 22012AE  26168.05866410  .00000043  00000+0  76588-4 0  9991
2 51650  87.9130   5.9052 0001969  91.2437 268.8920 13.17648920213652
ONEWEB-0464             
1 51651U 22012AF  26168.03299589 -.00007248  00000+0 -20836-1 0  9995
2 51651  87.8841  36.3124 0001218  88.8340 271.2927 13.10308710209306
ONEWEB-0468             
1 51652U 22012AG  26168.03947110  .00004950  00000+0  14127-1 0  9997
2 51652  87.8827  36.3041 0001612  77.5114 282.6194 13.10421179209285
ONEWEB-0473             
1 51653U 22012AH  26168.10102873 -.00004026  00000+0 -11580-1 0  9991
2 51653  87.8774  36.2928 0001273  80.6156 279.5115 13.10331765209294
ONEWEB-0474             
1 51654U 22012AJ  26168.09271509 -.00002269  00000+0 -65414-2 0  9996
2 51654  87.8818  36.2788 0001021  71.2518 288.8720 13.10344846209285
ONEWEB-0475             
1 51655U 22012AK  26168.07047466  .00000057  00000+0  11282-3 0  9994
2 51655  87.9133   5.8958 0001487  69.3797 290.7494 13.17648724213678
ONEWEB-0490             
1 54113U 22138A   26168.13458515 -.00000004  00000+0 -41698-4 0  9992
2 54113  87.9176 304.9772 0001698 101.8650 258.2673 13.19724614176826
ONEWEB-0492             
1 54114U 22138B   26167.93241251 -.00000034  00000+0 -11703-3 0  9993
2 54114  87.9168 305.0188 0001844 106.9855 253.1479 13.19726006176800
ONEWEB-0495             
1 54115U 22138C   26167.91029340 -.00000061  00000+0 -18427-3 0  9995
2 54115  87.9168 305.0258 0001264 109.3710 250.7559 13.19724827176780
ONEWEB-0497             
1 54116U 22138D   26168.07456375  .00000046  00000+0  82692-4 0  9993
2 54116  87.9176 304.9848 0001794  99.6708 260.4627 13.19724955176796
ONEWEB-0499             
1 54117U 22138E   26168.13379412 -.00000027  00000+0 -99517-4 0  9992
2 54117  87.9169 304.9825 0001597  97.9054 262.2260 13.19726439176815
ONEWEB-0500             
1 54118U 22138F   26168.13616148  .00000045  00000+0  79949-4 0  9998
2 54118  87.9178 304.9763 0001927 100.7916 259.3434 13.19724516176829
ONEWEB-0501             
1 54119U 22138G   26167.93872198  .00000030  00000+0  42290-4 0  9998
2 54119  87.9177 305.0151 0001448 103.2029 256.9266 13.19723352176770
ONEWEB-0502             
1 54120U 22138H   26168.07613508  .00000036  00000+0  57668-4 0  9995
2 54120  87.9177 304.9764 0001617  95.2927 264.8390 13.19724664176813
ONEWEB-0503             
1 54121U 22138J   26168.14090328 -.00000051  00000+0 -15882-3 0  9993
2 54121  87.9180 304.9696 0001908  90.7881 269.3471 13.19724332176816
